CCSDS_OMM_VERS = 2.0
CREATION_DATE  = 
ORIGINATOR     = 

OBJECT_NAME    = UNKNOWN
OBJECT_ID      = 
CENTER_NAME    = EARTH
REF_FRAME      = TEME
TIME_SYSTEM    = UTC
MEAN_ELEMENT_THEORY = SGP/SGP4

EPOCH          = 2026-01-20T18:30:35.317440
MEAN_MOTION    = 14.46797947
ECCENTRICITY   = .0053744
INCLINATION    = 99.0868
RA_OF_ASC_NODE = 28.3842
ARG_OF_PERICENTER = 43.9158
MEAN_ANOMALY   = 136.6089

EPHEMERIS_TYPE = 0
CLASSIFICATION_TYPE = U
NORAD_CAT_ID   = 87211
ELEMENT_SET_NO = 999
REV_AT_EPOCH   = 71341
BSTAR          = .23388E-2
MEAN_MOTION_DOT = .8583E-4
MEAN_MOTION_DDOT = 0

CCSDS_OMM_VERS = 2.0
CREATION_DATE  = 
ORIGINATOR     = 

OBJECT_NAME    = UNKNOWN
OBJECT_ID      = 
CENTER_NAME    = EARTH
REF_FRAME      = TEME
TIME_SYSTEM    = UTC
MEAN_ELEMENT_THEORY = SGP/SGP4

EPOCH          = 2026-01-21T17:23:42.734688
MEAN_MOTION    = 13.84144952
ECCENTRICITY   = .0071328
INCLINATION    = 100.3328
RA_OF_ASC_NODE = 29.3194
ARG_OF_PERICENTER = 152.2363
MEAN_ANOMALY   = 208.2624

EPHEMERIS_TYPE = 0
CLASSIFICATION_TYPE = U
NORAD_CAT_ID   = 87214
ELEMENT_SET_NO = 999
REV_AT_EPOCH   = 60577
BSTAR          = .90685E-3
MEAN_MOTION_DOT = .979E-5
MEAN_MOTION_DDOT = 0

CCSDS_OMM_VERS = 2.0
CREATION_DATE  = 
ORIGINATOR     = 

OBJECT_NAME    = UNKNOWN
OBJECT_ID      = 
CENTER_NAME    = EARTH
REF_FRAME      = TEME
TIME_SYSTEM    = UTC
MEAN_ELEMENT_THEORY = SGP/SGP4

EPOCH          = 2026-01-17T15:26:24.544896
MEAN_MOTION    = 13.91790030
ECCENTRICITY   = .0103713
INCLINATION    = 99.2517
RA_OF_ASC_NODE = 78.0438
ARG_OF_PERICENTER = 186.8403
MEAN_ANOMALY   = 326.0054

EPHEMERIS_TYPE = 0
CLASSIFICATION_TYPE = U
NORAD_CAT_ID   = 87237
ELEMENT_SET_NO = 999
REV_AT_EPOCH   = 61675
BSTAR          = .22813E-3
MEAN_MOTION_DOT = .258E-5
MEAN_MOTION_DDOT = 0

CCSDS_OMM_VERS = 2.0
CREATION_DATE  = 
ORIGINATOR     = 

OBJECT_NAME    = UNKNOWN
OBJECT_ID      = 
CENTER_NAME    = EARTH
REF_FRAME      = TEME
TIME_SYSTEM    = UTC
MEAN_ELEMENT_THEORY = SGP/SGP4

EPOCH          = 2026-01-22T07:44:02.042304
MEAN_MOTION    = 14.52837931
ECCENTRICITY   = .0016979
INCLINATION    = 82.8721
RA_OF_ASC_NODE = 48.3774
ARG_OF_PERICENTER = 269.0970
MEAN_ANOMALY   = 90.8284

EPHEMERIS_TYPE = 0
CLASSIFICATION_TYPE = U
NORAD_CAT_ID   = 87239
ELEMENT_SET_NO = 999
REV_AT_EPOCH   = 63376
BSTAR          = .2995E-2
MEAN_MOTION_DOT = .12366E-3
MEAN_MOTION_DDOT = 0

CCSDS_OMM_VERS = 2.0
CREATION_DATE  = 
ORIGINATOR     = 

OBJECT_NAME    = UNKNOWN
OBJECT_ID      = 
CENTER_NAME    = EARTH
REF_FRAME      = TEME
TIME_SYSTEM    = UTC
MEAN_ELEMENT_THEORY = SGP/SGP4

EPOCH          = 2026-01-20T05:28:16.245984
MEAN_MOTION    = 14.16122717
ECCENTRICITY   = .042783
INCLINATION    = 65.6414
RA_OF_ASC_NODE = 304.8526
ARG_OF_PERICENTER = 101.9021
MEAN_ANOMALY   = 45.4223

EPHEMERIS_TYPE = 0
CLASSIFICATION_TYPE = U
NORAD_CAT_ID   = 87245
ELEMENT_SET_NO = 999
REV_AT_EPOCH   = 61965
BSTAR          = .13501E-2
MEAN_MOTION_DOT = .6492E-4
MEAN_MOTION_DDOT = 0

CCSDS_OMM_VERS = 2.0
CREATION_DATE  = 
ORIGINATOR     = 

OBJECT_NAME    = UNKNOWN
OBJECT_ID      = 
CENTER_NAME    = EARTH
REF_FRAME      = TEME
TIME_SYSTEM    = UTC
MEAN_ELEMENT_THEORY = SGP/SGP4

EPOCH          = 2026-01-22T13:24:27.531936
MEAN_MOTION    = 14.22185421
ECCENTRICITY   = .0419445
INCLINATION    = 65.7549
RA_OF_ASC_NODE = 126.5362
ARG_OF_PERICENTER = 51.8958
MEAN_ANOMALY   = 311.9176

EPHEMERIS_TYPE = 0
CLASSIFICATION_TYPE = U
NORAD_CAT_ID   = 87271
ELEMENT_SET_NO = 999
REV_AT_EPOCH   = 61817
BSTAR          = .90642E-3
MEAN_MOTION_DOT = .4888E-4
MEAN_MOTION_DDOT = 0

CCSDS_OMM_VERS = 2.0
CREATION_DATE  = 
ORIGINATOR     = 

OBJECT_NAME    = UNKNOWN
OBJECT_ID      = 
CENTER_NAME    = EARTH
REF_FRAME      = TEME
TIME_SYSTEM    = UTC
MEAN_ELEMENT_THEORY = SGP/SGP4

EPOCH          = 2026-01-22T14:38:33.963648
MEAN_MOTION    = 13.48594436
ECCENTRICITY   = .0129008
INCLINATION    = 64.6153
RA_OF_ASC_NODE = 134.2893
ARG_OF_PERICENTER = 252.7760
MEAN_ANOMALY   = 105.9125

EPHEMERIS_TYPE = 0
CLASSIFICATION_TYPE = U
NORAD_CAT_ID   = 87280
ELEMENT_SET_NO = 999
REV_AT_EPOCH   = 53936
BSTAR          = .11881E-2
MEAN_MOTION_DOT = .695E-5
MEAN_MOTION_DDOT = 0

CCSDS_OMM_VERS = 2.0
CREATION_DATE  = 
ORIGINATOR     = 

OBJECT_NAME    = UNKNOWN
OBJECT_ID      = 
CENTER_NAME    = EARTH
REF_FRAME      = TEME
TIME_SYSTEM    = UTC
MEAN_ELEMENT_THEORY = SGP/SGP4

EPOCH          = 2026-01-22T10:13:39.772992
MEAN_MOTION    = 14.18574473
ECCENTRICITY   = .0428689
INCLINATION    = 65.8980
RA_OF_ASC_NODE = 37.0690
ARG_OF_PERICENTER = 337.5776
MEAN_ANOMALY   = 20.7047

EPHEMERIS_TYPE = 0
CLASSIFICATION_TYPE = U
NORAD_CAT_ID   = 87293
ELEMENT_SET_NO = 999
REV_AT_EPOCH   = 61976
BSTAR          = .26683E-2
MEAN_MOTION_DOT = .13886E-3
MEAN_MOTION_DDOT = 0

CCSDS_OMM_VERS = 2.0
CREATION_DATE  = 
ORIGINATOR     = 

OBJECT_NAME    = UNKNOWN
OBJECT_ID      = 
CENTER_NAME    = EARTH
REF_FRAME      = TEME
TIME_SYSTEM    = UTC
MEAN_ELEMENT_THEORY = SGP/SGP4

EPOCH          = 2026-01-21T06:08:55.927968
MEAN_MOTION    = 13.99604553
ECCENTRICITY   = .0026129
INCLINATION    = 100.0931
RA_OF_ASC_NODE = 12.6886
ARG_OF_PERICENTER = 186.2431
MEAN_ANOMALY   = 173.8407

EPHEMERIS_TYPE = 0
CLASSIFICATION_TYPE = U
NORAD_CAT_ID   = 87300
ELEMENT_SET_NO = 999
REV_AT_EPOCH   = 61864
BSTAR          = .20949E-2
MEAN_MOTION_DOT = .3018E-4
MEAN_MOTION_DDOT = 0

CCSDS_OMM_VERS = 2.0
CREATION_DATE  = 
ORIGINATOR     = 

OBJECT_NAME    = UNKNOWN
OBJECT_ID      = 
CENTER_NAME    = EARTH
REF_FRAME      = TEME
TIME_SYSTEM    = UTC
MEAN_ELEMENT_THEORY = SGP/SGP4

EPOCH          = 2026-01-19T08:13:12.445824
MEAN_MOTION    = 14.75592429
ECCENTRICITY   = .0018481
INCLINATION    = 74.0159
RA_OF_ASC_NODE = 247.3298
ARG_OF_PERICENTER = 209.6952
MEAN_ANOMALY   = 150.3175

EPHEMERIS_TYPE = 0
CLASSIFICATION_TYPE = U
NORAD_CAT_ID   = 87304
ELEMENT_SET_NO = 999
REV_AT_EPOCH   = 65202
BSTAR          = .22649E-3
MEAN_MOTION_DOT = .1515E-4
MEAN_MOTION_DDOT = 0

CCSDS_OMM_VERS = 2.0
CREATION_DATE  = 
ORIGINATOR     = 

OBJECT_NAME    = UNKNOWN
OBJECT_ID      = 
CENTER_NAME    = EARTH
REF_FRAME      = TEME
TIME_SYSTEM    = UTC
MEAN_ELEMENT_THEORY = SGP/SGP4

EPOCH          = 2026-01-22T14:43:46.342848
MEAN_MOTION    = 13.70222724
ECCENTRICITY   = .0417765
INCLINATION    = 66.5961
RA_OF_ASC_NODE = 346.7729
ARG_OF_PERICENTER = 28.2890
MEAN_ANOMALY   = 334.0189

EPHEMERIS_TYPE = 0
CLASSIFICATION_TYPE = U
NORAD_CAT_ID   = 87320
ELEMENT_SET_NO = 999
REV_AT_EPOCH   = 59934
BSTAR          = .3429E-2
MEAN_MOTION_DOT = .5544E-4
MEAN_MOTION_DDOT = 0

CCSDS_OMM_VERS = 2.0
CREATION_DATE  = 
ORIGINATOR     = 

OBJECT_NAME    = UNKNOWN
OBJECT_ID      = 
CENTER_NAME    = EARTH
REF_FRAME      = TEME
TIME_SYSTEM    = UTC
MEAN_ELEMENT_THEORY = SGP/SGP4

EPOCH          = 2026-01-22T15:36:53.803008
MEAN_MOTION    = 14.08602356
ECCENTRICITY   = .0056769
INCLINATION    = 89.9976
RA_OF_ASC_NODE = 271.6860
ARG_OF_PERICENTER = 103.9700
MEAN_ANOMALY   = 256.7806

EPHEMERIS_TYPE = 0
CLASSIFICATION_TYPE = U
NORAD_CAT_ID   = 87334
ELEMENT_SET_NO = 999
REV_AT_EPOCH   = 39240
BSTAR          = .18757E-1
MEAN_MOTION_DOT = .3285E-3
MEAN_MOTION_DDOT = 0

