UNKNOWN                 
1 87211U          26020.77124210  .00008583  00000+0  23388-2 0  9992
2 87211  99.0868  28.3842 0053744  43.9158 136.6089 14.46797947713418
UNKNOWN                 
1 87214U          26021.72480017  .00000979  00000+0  90685-3 0  9997
2 87214 100.3328  29.3194 0071328 152.2363 208.2624 13.84144952605772
UNKNOWN                 
1 87237U          26017.64333964  .00000258  00000+0  22813-3 0  9994
2 87237  99.2517  78.0438 0103713 186.8403 326.0054 13.91790030616755
UNKNOWN                 
1 87239U          26022.32224586  .00012366  00000+0  29950-2 0  9997
2 87239  82.8721  48.3774 0016979 269.0970  90.8284 14.52837931633766
UNKNOWN                 
1 87245U          26020.22796581  .00006492  00000+0  13501-2 0  9998
2 87245  65.6414 304.8526 0427830 101.9021  45.4223 14.16122717619659
UNKNOWN                 
1 87271U          26022.55865199  .00004888  00000+0  90642-3 0  9996
2 87271  65.7549 126.5362 0419445  51.8958 311.9176 14.22185421618172
UNKNOWN                 
1 87280U          26022.61011532  .00000695  00000+0  11881-2 0  9996
2 87280  64.6153 134.2893 0129008 252.7760 105.9125 13.48594436539367
UNKNOWN                 
1 87293U          26022.42615478  .00013886  00000+0  26683-2 0  9990
2 87293  65.8980  37.0690 0428689 337.5776  20.7047 14.18574473619760
UNKNOWN                 
1 87300U          26021.25620287  .00003018  00000+0  20949-2 0  9998
2 87300 100.0931  12.6886 0026129 186.2431 173.8407 13.99604553618640
UNKNOWN                 
1 87304U          26019.34250516  .00001515  00000+0  22649-3 0  9993
2 87304  74.0159 247.3298 0018481 209.6952 150.3175 14.75592429652025
UNKNOWN                 
1 87320U          26022.61373082  .00005544  00000+0  34290-2 0  9999
2 87320  66.5961 346.7729 0417765  28.2890 334.0189 13.70222724599340
UNKNOWN                 
1 87334U          26022.65062272  .00032850  00000+0  18757-1 0  9993
2 87334  89.9976 271.6860 0056769 103.9700 256.7806 14.08602356392405
